[{"OBJECT_NAME":"OBJECT V","OBJECT_ID":"2023-085V","EPOCH":"2026-03-09T21:44:00.165408","MEAN_MOTION":15.30745852,"ECCENTRICITY":0.00069081,"INCLINATION":97.4843,"RA_OF_ASC_NODE":179.3833,"ARG_OF_PERICENTER":71.0503,"MEAN_ANOMALY":289.1485,"EPHEMERIS_TYPE":0,"CLASSIFICATION_TYPE":"U","NORAD_CAT_ID":57023,"ELEMENT_SET_NO":999,"REV_AT_EPOCH":15149,"BSTAR":0.00067780507,"MEAN_MOTION_DOT":0.00020109,"MEAN_MOTION_DDOT":0},{"OBJECT_NAME":"STARLINK-33782","OBJECT_ID":"2025-124R","EPOCH":"2026-03-09T12:08:35.069280","MEAN_MOTION":15.27590471,"ECCENTRICITY":0.00017233,"INCLINATION":42.9997,"RA_OF_ASC_NODE":122.6298,"ARG_OF_PERICENTER":267.9367,"MEAN_ANOMALY":92.1287,"EPHEMERIS_TYPE":0,"CLASSIFICATION_TYPE":"U","NORAD_CAT_ID":64332,"ELEMENT_SET_NO":999,"REV_AT_EPOCH":4175,"BSTAR":0.0012552841,"MEAN_MOTION_DOT":0.00034454,"MEAN_MOTION_DDOT":0}]
